[{"OBJECT_NAME":"STARLINK-4097","OBJECT_ID":"2022-086Z","EPOCH":"2026-03-09T15:47:41.080704","MEAN_MOTION":15.0884524,"ECCENTRICITY":0.0001261,"INCLINATION":53.2179,"RA_OF_ASC_NODE":194.2629,"ARG_OF_PERICENTER":86.5063,"MEAN_ANOMALY":273.6074,"EPHEMERIS_TYPE":0,"CLASSIFICATION_TYPE":"U","NORAD_CAT_ID":53265,"ELEMENT_SET_NO":999,"REV_AT_EPOCH":20106,"BSTAR":-7.938136e-6,"MEAN_MOTION_DOT":-4.14e-6,"MEAN_MOTION_DDOT":0},{"OBJECT_NAME":"PSLV DEB","OBJECT_ID":"2001-049PR","EPOCH":"2026-03-09T15:06:31.993344","MEAN_MOTION":15.1271322,"ECCENTRICITY":0.0041907,"INCLINATION":98.4927,"RA_OF_ASC_NODE":1.3381,"ARG_OF_PERICENTER":112.6989,"MEAN_ANOMALY":247.8677,"EPHEMERIS_TYPE":0,"CLASSIFICATION_TYPE":"U","NORAD_CAT_ID":34221,"ELEMENT_SET_NO":999,"REV_AT_EPOCH":29932,"BSTAR":0.00024868,"MEAN_MOTION_DOT":4.366e-5,"MEAN_MOTION_DDOT":0}]
